{
  "norad_id": 62050,
  "name": "STARLINK-32492",
  "history": [
    {
      "epoch": "2026-04-13T06:26:57.420096Z",
      "apogee_km": 483.83928970195666,
      "perigee_km": 482.2310309475761,
      "latitude_deg": -4.927889113673353e-05,
      "longitude_deg": 129.79106528745632,
      "height_km": 482.7540163635681,
      "semi_major_axis_km": 6861.172160324766,
      "eccentricity": 0.0001172,
      "inclination_deg": 43.0051,
      "raan_deg": 67.9923,
      "arg_perigee_deg": 274.1528,
      "mean_anomaly_deg": 85.9189,
      "mean_motion_rev_day": 15.27584654
    },
    {
      "epoch": "2026-04-14T04:25:08.985792Z",
      "apogee_km": 483.7370455823775,
      "perigee_km": 482.32515441076157,
      "latitude_deg": 4.6084612301996914e-05,
      "longitude_deg": 154.1705063968645,
      "height_km": 482.65999690861287,
      "semi_major_axis_km": 6861.168099996569,
      "eccentricity": 0.00010289,
      "inclination_deg": 43.0031,
      "raan_deg": 62.8221,
      "arg_perigee_deg": 282.0875,
      "mean_anomaly_deg": 77.9862,
      "mean_motion_rev_day": 15.2758601
    },
    {
      "epoch": "2026-04-15T21:13:13.079424Z",
      "apogee_km": 483.6219839676396,
      "perigee_km": 482.44186291280676,
      "latitude_deg": 2.015546604564087e-05,
      "longitude_deg": -109.12321820984077,
      "height_km": 482.74043069772137,
      "semi_major_axis_km": 6861.168923440223,
      "eccentricity": 8.6e-05,
      "inclination_deg": 43.0011,
      "raan_deg": 53.2211,
      "arg_perigee_deg": 276.6031,
      "mean_anomaly_deg": 83.4723,
      "mean_motion_rev_day": 15.27585735
    },
    {
      "epoch": "2026-04-16T12:54:47.196000Z",
      "apogee_km": 483.2674182265546,
      "perigee_km": 482.84614092848915,
      "latitude_deg": 7.310597637916718e-06,
      "longitude_deg": 11.14873612922261,
      "height_km": 482.6381933760494,
      "semi_major_axis_km": 6861.193779577522,
      "eccentricity": 3.07e-05,
      "inclination_deg": 42.9998,
      "raan_deg": 49.5297,
      "arg_perigee_deg": 337.1575,
      "mean_anomaly_deg": 22.9263,
      "mean_motion_rev_day": 15.27577434
    },
    {
      "epoch": "2026-04-17T12:27:07.889184Z",
      "apogee_km": 483.53291461481876,
      "perigee_km": 482.5218534311889,
      "latitude_deg": -1.7627145190033857e-06,
      "longitude_deg": 11.555590603104118,
      "height_km": 482.6532433817889,
      "semi_major_axis_km": 6861.164384023004,
      "eccentricity": 7.368e-05,
      "inclination_deg": 43.0034,
      "raan_deg": 43.9895,
      "arg_perigee_deg": 287.3356,
      "mean_anomaly_deg": 72.7415,
      "mean_motion_rev_day": 15.27587251
    },
    {
      "epoch": "2026-04-18T11:59:30.169536Z",
      "apogee_km": 483.6224841098474,
      "perigee_km": 482.4097066887052,
      "latitude_deg": -4.057178630614689e-05,
      "longitude_deg": 11.958881141591904,
      "height_km": 482.8324471538575,
      "semi_major_axis_km": 6861.153095399276,
      "eccentricity": 8.838e-05,
      "inclination_deg": 43.0026,
      "raan_deg": 38.4524,
      "arg_perigee_deg": 266.2358,
      "mean_anomaly_deg": 93.8392,
      "mean_motion_rev_day": 15.27591021
    },
    {
      "epoch": "2026-04-19T11:31:50.240640Z",
      "apogee_km": 483.31796577274145,
      "perigee_km": 482.61525154114224,
      "latitude_deg": -8.426188335196754e-06,
      "longitude_deg": 12.368976584579555,
      "height_km": 482.9210019230743,
      "semi_major_axis_km": 6861.103608656941,
      "eccentricity": 5.121e-05,
      "inclination_deg": 43.0037,
      "raan_deg": 32.9128,
      "arg_perigee_deg": 239.5311,
      "mean_anomaly_deg": 120.549,
      "mean_motion_rev_day": 15.27607548
    },
    {
      "epoch": "2026-04-20T11:04:10.857792Z",
      "apogee_km": 483.6277211849201,
      "perigee_km": 482.4458153915948,
      "latitude_deg": -5.854164588011467e-06,
      "longitude_deg": 12.778957996293071,
      "height_km": 482.62315039550106,
      "semi_major_axis_km": 6861.173768288258,
      "eccentricity": 8.613e-05,
      "inclination_deg": 42.9997,
      "raan_deg": 27.3754,
      "arg_perigee_deg": 288.7347,
      "mean_anomaly_deg": 71.3411,
      "mean_motion_rev_day": 15.27584117
    },
    {
      "epoch": "2026-04-21T10:36:31.317696Z",
      "apogee_km": 483.59382372218533,
      "perigee_km": 482.3704861768583,
      "latitude_deg": 3.603563394537909e-05,
      "longitude_deg": 13.185837651151113,
      "height_km": 482.6750231384458,
      "semi_major_axis_km": 6861.1191549495215,
      "eccentricity": 8.915e-05,
      "inclination_deg": 43.005,
      "raan_deg": 21.8342,
      "arg_perigee_deg": 277.8886,
      "mean_anomaly_deg": 82.1865,
      "mean_motion_rev_day": 15.27602356
    },
    {
      "epoch": "2026-04-22T03:52:13.696032Z",
      "apogee_km": 483.89934107418685,
      "perigee_km": 482.02831887785305,
      "latitude_deg": -8.77459258402257e-06,
      "longitude_deg": 109.49189584119809,
      "height_km": 482.8328618705371,
      "semi_major_axis_km": 6861.10082997602,
      "eccentricity": 0.00013635,
      "inclination_deg": 42.999,
      "raan_deg": 17.7758,
      "arg_perigee_deg": 264.326,
      "mean_anomaly_deg": 95.7436,
      "mean_motion_rev_day": 15.27608476
    },
    {
      "epoch": "2026-04-23T03:24:35.149536Z",
      "apogee_km": 484.0571694907185,
      "perigee_km": 482.0033476835324,
      "latitude_deg": 4.516167868165843e-05,
      "longitude_deg": 109.89553706578953,
      "height_km": 482.6094864430696,
      "semi_major_axis_km": 6861.167258587125,
      "eccentricity": 0.00014967,
      "inclination_deg": 43.0045,
      "raan_deg": 12.2355,
      "arg_perigee_deg": 281.12,
      "mean_anomaly_deg": 78.9484,
      "mean_motion_rev_day": 15.27586291
    },
    {
      "epoch": "2026-04-24T09:13:33.989088Z",
      "apogee_km": 483.9983409043598,
      "perigee_km": 482.08132809680046,
      "latitude_deg": -5.5926014481970554e-05,
      "longitude_deg": 14.404348855406429,
      "height_km": 481.9375196037194,
      "semi_major_axis_km": 6861.176834500579,
      "eccentricity": 0.0001397,
      "inclination_deg": 43.0034,
      "raan_deg": 5.2141,
      "arg_perigee_deg": 23.7044,
      "mean_anomaly_deg": 336.3871,
      "mean_motion_rev_day": 15.27583093
    },
    {
      "epoch": "2026-04-25T08:45:54.526752Z",
      "apogee_km": 483.62898271972153,
      "perigee_km": 482.4241623963808,
      "latitude_deg": -1.2670212858817256e-05,
      "longitude_deg": 14.817006853319551,
      "height_km": 482.200565210831,
      "semi_major_axis_km": 6861.163572558051,
      "eccentricity": 8.78e-05,
      "inclination_deg": 43.0028,
      "raan_deg": 359.679,
      "arg_perigee_deg": 357.5331,
      "mean_anomaly_deg": 2.5516,
      "mean_motion_rev_day": 15.27587522
    },
    {
      "epoch": "2026-04-26T16:09:02.075616Z",
      "apogee_km": 483.6145659937274,
      "perigee_km": 482.4000062321993,
      "latitude_deg": -3.1341356541640115e-05,
      "longitude_deg": -104.63622014157787,
      "height_km": 482.6082547835813,
      "semi_major_axis_km": 6861.144286112963,
      "eccentricity": 8.851e-05,
      "inclination_deg": 43.0,
      "raan_deg": 352.2962,
      "arg_perigee_deg": 286.7762,
      "mean_anomaly_deg": 73.2992,
      "mean_motion_rev_day": 15.27593963
    },
    {
      "epoch": "2026-04-27T07:50:36.007296Z",
      "apogee_km": 483.78419174284863,
      "perigee_km": 482.196526871905,
      "latitude_deg": -2.532273532503613e-05,
      "longitude_deg": 15.633726025972534,
      "height_km": 482.20802096306954,
      "semi_major_axis_km": 6861.1273593073765,
      "eccentricity": 0.0001157,
      "inclination_deg": 43.0023,
      "raan_deg": 348.602,
      "arg_perigee_deg": 314.7505,
      "mean_anomaly_deg": 45.3252,
      "mean_motion_rev_day": 15.27599616
    },
    {
      "epoch": "2026-04-28T15:13:44.013216Z",
      "apogee_km": 484.69041927116723,
      "perigee_km": 481.398424424965,
      "latitude_deg": 4.800485387619746e-05,
      "longitude_deg": -103.8249118085969,
      "height_km": 482.5550161873821,
      "semi_major_axis_km": 6861.181421848066,
      "eccentricity": 0.0002399,
      "inclination_deg": 43.0011,
      "raan_deg": 341.2156,
      "arg_perigee_deg": 279.3353,
      "mean_anomaly_deg": 80.7228,
      "mean_motion_rev_day": 15.27581561
    },
    {
      "epoch": "2026-04-29T21:02:42.226368Z",
      "apogee_km": 484.306741834841,
      "perigee_km": 481.6652094892097,
      "latitude_deg": -2.097527734542377e-05,
      "longitude_deg": 160.6926537097457,
      "height_km": 482.69716412058074,
      "semi_major_axis_km": 6861.122975662025,
      "eccentricity": 0.0001925,
      "inclination_deg": 43.0017,
      "raan_deg": 334.2003,
      "arg_perigee_deg": 272.8698,
      "mean_anomaly_deg": 87.1933,
      "mean_motion_rev_day": 15.2760108
    },
    {
      "epoch": "2026-04-29T22:36:51.509376Z",
      "apogee_km": 484.1111914020621,
      "perigee_km": 481.8182112134846,
      "latitude_deg": -1.3067767171359882e-05,
      "longitude_deg": 136.7205363450806,
      "height_km": 482.7160748250543,
      "semi_major_axis_km": 6861.101701307773,
      "eccentricity": 0.0001671,
      "inclination_deg": 43.0015,
      "raan_deg": 333.8313,
      "arg_perigee_deg": 271.2853,
      "mean_anomaly_deg": 88.7807,
      "mean_motion_rev_day": 15.27608185
    },
    {
      "epoch": "2026-05-01T23:15:41.866848Z",
      "apogee_km": 484.1165210945146,
      "perigee_km": 481.841375046135,
      "latitude_deg": -5.1465635601076995e-05,
      "longitude_deg": 113.56699634013802,
      "height_km": 482.7935129838051,
      "semi_major_axis_km": 6861.1159480703245,
      "eccentricity": 0.0001658,
      "inclination_deg": 43.0018,
      "raan_deg": 322.3855,
      "arg_perigee_deg": 268.1131,
      "mean_anomaly_deg": 91.953,
      "mean_motion_rev_day": 15.27603427
    }
  ]
}